SOYUZ-MS 28             
1 66664U 25275A   26187.08895395  .00007119  00000+0  13761-3 0  9998
2 66664  51.6304 206.5355 0006732 261.2547  98.7678 15.48915600645122
CREW DRAGON 12          
1 67796U 26031A   26187.08895395  .00007119  00000+0  13761-3 0  9996
2 67796  51.6304 206.5355 0006732 261.2547  98.7678 15.48915600627433
SHENZHOU-23 (SZ-23)     
1 69180U 26113A   26187.30505103  .00013102  00000+0  17388-3 0  9994
2 69180  41.4676 205.7143 0002935 272.6042  87.4460 15.58006739296479
