{"fetched_at":"2026-07-06T18:35:21.845Z","source":"https://celestrak.org/NORAD/elements/gp.php?GROUP=stations&FORMAT=JSON","constellation":"crewed-vehicles","records":[{"OBJECT_NAME":"SOYUZ-MS 28","OBJECT_ID":"2025-275A","EPOCH":"2026-07-06T02:08:05.621280","CLASSIFICATION_TYPE":"U","MEAN_MOTION":15.489156,"ECCENTRICITY":0.00067325,"INCLINATION":51.6304,"RA_OF_ASC_NODE":206.5355,"ARG_OF_PERICENTER":261.2547,"MEAN_ANOMALY":98.7678,"EPHEMERIS_TYPE":0,"NORAD_CAT_ID":66664,"ELEMENT_SET_NO":999,"REV_AT_EPOCH":64512,"BSTAR":0.00013761082,"MEAN_MOTION_DOT":0.00007119,"MEAN_MOTION_DDOT":0},{"OBJECT_NAME":"CREW DRAGON 12","OBJECT_ID":"2026-031A","EPOCH":"2026-07-06T02:08:05.621280","CLASSIFICATION_TYPE":"U","MEAN_MOTION":15.489156,"ECCENTRICITY":0.00067325,"INCLINATION":51.6304,"RA_OF_ASC_NODE":206.5355,"ARG_OF_PERICENTER":261.2547,"MEAN_ANOMALY":98.7678,"EPHEMERIS_TYPE":0,"NORAD_CAT_ID":67796,"ELEMENT_SET_NO":999,"REV_AT_EPOCH":62743,"BSTAR":0.00013761082,"MEAN_MOTION_DOT":0.00007119,"MEAN_MOTION_DDOT":0},{"OBJECT_NAME":"SHENZHOU-23 (SZ-23)","OBJECT_ID":"2026-113A","EPOCH":"2026-07-06T07:19:16.408992","CLASSIFICATION_TYPE":"U","MEAN_MOTION":15.58006739,"ECCENTRICITY":0.00029355,"INCLINATION":41.4676,"RA_OF_ASC_NODE":205.7143,"ARG_OF_PERICENTER":272.6042,"MEAN_ANOMALY":87.446,"EPHEMERIS_TYPE":0,"NORAD_CAT_ID":69180,"ELEMENT_SET_NO":999,"REV_AT_EPOCH":29647,"BSTAR":0.00017387936,"MEAN_MOTION_DOT":0.00013102,"MEAN_MOTION_DDOT":0}]}
